start=new Date('2022-03-01T00:00:00.000Z').valueOf();
sats=[{"INCLINATION":"53.0542","RA_OF_ASC_NODE":"86.6052","LAUNCH_DATE":"2020-01-07","EPOCH":"2022-02-28T11:43:53.658336","MEAN_ANOMALY":"314.9683","ECCENTRICITY":"0.00017810","SITE":"AFETR","DECAY_DATE":null,"ELEMENT_SET_NO":"999","CLASSIFICATION_TYPE":"U","APOAPSIS":"548.470","NORAD_CAT_ID":"44941","COUNTRY_CODE":"US","FILE":"3333257","TLE_LINE2":"2 44941  53.0542  86.6052 0001781  45.1451 314.9683 15.06392497118535","OBJECT_TYPE":"PAYLOAD","REV_AT_EPOCH":"11853","RCS_SIZE":"LARGE","OBJECT_ID":"2020-001AD","EPHEMERIS_TYPE":"0","MEAN_ELEMENT_THEORY":"SGP4","TLE_LINE1":"1 44941U 20001AD  22059.48881549  .00000550  00000-0  55854-4 0  9991","BSTAR":"0.00005585400000","PERIAPSIS":"546.003","GP_ID":"197332420","CENTER_NAME":"EARTH","MEAN_MOTION":"15.06392497","ARG_OF_PERICENTER":"45.1451","TIME_SYSTEM":"UTC","REF_FRAME":"TEME","OBJECT_NAME":"STARLINK-1094","MEAN_MOTION_DDOT":"0.0000000000000","MEAN_MOTION_DOT":"0.00000550","PERIOD":"95.593","SEMIMAJOR_AXIS":"6925.372"},{"RCS_SIZE":"LARGE","OBJECT_ID":"2020-001AE","OBJECT_TYPE":"PAYLOAD","REV_AT_EPOCH":"11853","COUNTRY_CODE":"US","NORAD_CAT_ID":"44942","APOAPSIS":"548.314","TLE_LINE2":"2 44942  53.0540  86.6701 0001558  57.0682 303.0457 15.06393072118533","FILE":"3333642","MEAN_MOTION_DOT":"0.00000463","MEAN_MOTION_DDOT":"0.0000000000000","OBJECT_NAME":"STARLINK-1096","SEMIMAJOR_AXIS":"6925.370","PERIOD":"95.593","PERIAPSIS":"546.156","GP_ID":"197358643","CENTER_NAME":"EARTH","MEAN_MOTION":"15.06393072","REF_FRAME":"TEME","TIME_SYSTEM":"UTC","ARG_OF_PERICENTER":"57.0682","BSTAR":"0.00005001300000","TLE_LINE1":"1 44942U 20001AE  22059.47407262  .00000463  00000-0  50013-4 0  9992","MEAN_ELEMENT_THEORY":"SGP4","EPHEMERIS_TYPE":"0","EPOCH":"2022-02-28T11:22:39.874368","RA_OF_ASC_NODE":"86.6701","LAUNCH_DATE":"2020-01-07","INCLINATION":"53.0540","DECAY_DATE":null,"ELEMENT_SET_NO":"999","CLASSIFICATION_TYPE":"U","SITE":"AFETR","MEAN_ANOMALY":"303.0457","ECCENTRICITY":"0.00015580"},{"OBJECT_ID":"2020-001AF","RCS_SIZE":"LARGE","TLE_LINE2":"2 44943  53.0536  85.2858 0001811  64.3652 295.7524 15.06409373118575","FILE":"3334872","COUNTRY_CODE":"US","APOAPSIS":"548.439","NORAD_CAT_ID":"44943","REV_AT_EPOCH":"11857","OBJECT_TYPE":"PAYLOAD","REF_FRAME":"TEME","ARG_OF_PERICENTER":"64.3652","TIME_SYSTEM":"UTC","GP_ID":"197408273","PERIAPSIS":"545.931","CENTER_NAME":"EARTH","MEAN_MOTION":"15.06409373","SEMIMAJOR_AXIS":"6925.320","PERIOD":"95.592","MEAN_MOTION_DOT":"0.00004778","OBJECT_NAME":"STARLINK-1100","MEAN_MOTION_DDOT":"0.0000000000000","EPHEMERIS_TYPE":"0","MEAN_ELEMENT_THEORY":"SGP4","BSTAR":"0.00033938000000","TLE_LINE1":"1 44943U 20001AF  22059.78368545  .00004778  00000-0  33938-3 0  9996","EPOCH":"2022-02-28T18:48:30.422880","INCLINATION":"53.0536","LAUNCH_DATE":"2020-01-07","RA_OF_ASC_NODE":"85.2858","CLASSIFICATION_TYPE":"U","ELEMENT_SET_NO":"999","DECAY_DATE":null,"ECCENTRICITY":"0.00018110","MEAN_ANOMALY":"295.7524","SITE":"AFETR"},{"EPOCH":"2022-02-28T11:59:49.017696","INCLINATION":"53.0536","LAUNCH_DATE":"2020-01-07","RA_OF_ASC_NODE":"86.5561","CLASSIFICATION_TYPE":"U","ELEMENT_SET_NO":"999","DECAY_DATE":null,"ECCENTRICITY":"0.00016070","MEAN_ANOMALY":"302.9900","SITE":"AFETR","OBJECT_ID":"2020-001AG","RCS_SIZE":"LARGE","FILE":"3333642","TLE_LINE2":"2 44944  53.0536  86.5561 0001607  57.1244 302.9900 15.06397039118531","NORAD_CAT_ID":"44944","APOAPSIS":"548.336","COUNTRY_CODE":"US","REV_AT_EPOCH":"11853","OBJECT_TYPE":"PAYLOAD","TIME_SYSTEM":"UTC","ARG_OF_PERICENTER":"57.1244","REF_FRAME":"TEME","GP_ID":"197359638","CENTER_NAME":"EARTH","PERIAPSIS":"546.110","MEAN_MOTION":"15.06397039","PERIOD":"95.592","SEMIMAJOR_AXIS":"6925.358","MEAN_MOTION_DDOT":"0.0000000000000","OBJECT_NAME":"STARLINK-1108","MEAN_MOTION_DOT":"0.00002128","MEAN_ELEMENT_THEORY":"SGP4","EPHEMERIS_TYPE":"0","TLE_LINE1":"1 44944U 20001AG  22059.49987289  .00002128  00000-0  16174-3 0  9997","BSTAR":"0.00016174000000"},{"SITE":"AFETR","MEAN_ANOMALY":"297.3884","ECCENTRICITY":"0.00018000","DECAY_DATE":null,"ELEMENT_SET_NO":"999","CLASSIFICATION_TYPE":"U","RA_OF_ASC_NODE":"86.4175","LAUNCH_DATE":"2020-01-07","INCLINATION":"53.0540","EPOCH":"2022-02-28T12:42:16.684992","BSTAR":"0.00011151000000","TLE_LINE1":"1 44945U 20001AH  22059.52935978  .00001380  00000-0  11151-3 0  9999","EPHEMERIS_TYPE":"0","MEAN_ELEMENT_THEORY":"SGP4","MEAN_MOTION_DOT":"0.00001380","OBJECT_NAME":"STARLINK-1109","MEAN_MOTION_DDOT":"0.0000000000000","SEMIMAJOR_AXIS":"6925.334","PERIOD":"95.592","GP_ID":"197358900","PERIAPSIS":"545.952","CENTER_NAME":"EARTH","MEAN_MOTION":"15.06404870","REF_FRAME":"TEME","TIME_SYSTEM":"UTC","ARG_OF_PERICENTER":"62.7288","OBJECT_TYPE":"PAYLOAD","REV_AT_EPOCH":"11853","COUNTRY_CODE":"US","NORAD_CAT_ID":"44945","APOAPSIS":"548.445","TLE_LINE2":"2 44945  53.0540  86.4175 0001800  62.7288 297.3884 15.06404870118532","FILE":"3333642","RCS_SIZE":"LARGE","OBJECT_ID":"2020-001AH"},{"REV_AT_EPOCH":"11858","OBJECT_TYPE":"PAYLOAD","FILE":"3333642","TLE_LINE2":"2 44946  53.0039  80.2250 0000528 150.5175 209.5845 15.10281574118585","APOAPSIS":"535.708","NORAD_CAT_ID":"44946","COUNTRY_CODE":"US","OBJECT_ID":"2020-001AJ","RCS_SIZE":"LARGE","TLE_LINE1":"1 44946U 20001AJ  22059.37098148  .00008080  00000-0  50494-3 0  9999","BSTAR":"0.00050494000000","EPHEMERIS_TYPE":"0","MEAN_ELEMENT_THEORY":"SGP4","PERIOD":"95.346","SEMIMAJOR_AXIS":"6913.478","OBJECT_NAME":"STARLINK-1110","MEAN_MOTION_DDOT":"0.0000000000000","MEAN_MOTION_DOT":"0.00008080","ARG_OF_PERICENTER":"150.5175","TIME_SYSTEM":"UTC","REF_FRAME":"TEME","GP_ID":"197359143","PERIAPSIS":"534.978","MEAN_MOTION":"15.10281574","CENTER_NAME":"EARTH","LAUNCH_DATE":"2020-01-07","RA_OF_ASC_NODE":"80.2250","INCLINATION":"53.0039","EPOCH":"2022-02-28T08:54:12.799872","SITE":"AFETR","ECCENTRICITY":"0.00005280","MEAN_ANOMALY":"209.5845","ELEMENT_SET_NO":"999","CLASSIFICATION_TYPE":"U","DECAY_DATE":null},{"RCS_SIZE":"LARGE","OBJECT_ID":"2020-001AK","COUNTRY_CODE":"US","APOAPSIS":"548.495","NORAD_CAT_ID":"44947","TLE_LINE2":"2 44947  53.0541  86.6130 0001868  52.4705 307.6453 15.06403899118539","FILE":"3333642","OBJECT_TYPE":"PAYLOAD","REV_AT_EPOCH":"11853","GP_ID":"197359901","MEAN_MOTION":"15.06403899","PERIAPSIS":"545.908","CENTER_NAME":"EARTH","REF_FRAME":"TEME","TIME_SYSTEM":"UTC","ARG_OF_PERICENTER":"52.4705","MEAN_MOTION_DOT":"0.00000812","MEAN_MOTION_DDOT":"0.0000000000000","OBJECT_NAME":"STARLINK-1116","SEMIMAJOR_AXIS":"6925.337","PERIOD":"95.592","MEAN_ELEMENT_THEORY":"SGP4","EPHEMERIS_TYPE":"0","BSTAR":"0.00007339500000","TLE_LINE1":"1 44947U 20001AK  22059.48512297  .00000812  00000-0  73395-4 0  9999","EPOCH":"2022-02-28T11:38:34.624608","INCLINATION":"53.0541","RA_OF_ASC_NODE":"86.6130","LAUNCH_DATE":"2020-01-07","DECAY_DATE":null,"ELEMENT_SET_NO":"999","CLASSIFICATION_TYPE":"U","MEAN_ANOMALY":"307.6453","ECCENTRICITY":"0.00018680","SITE":"AFETR"},{"RCS_SIZE":"LARGE","OBJECT_ID":"2020-001AM","OBJECT_TYPE":"PAYLOAD","REV_AT_EPOCH":"11854","NORAD_CAT_ID":"44949","APOAPSIS":"548.589","COUNTRY_CODE":"US","TLE_LINE2":"2 44949  53.0534  86.2142 0001952  51.2258 308.8905 15.06392384118548","FILE":"3334872","OBJECT_NAME":"STARLINK-1122","MEAN_MOTION_DDOT":"0.0000000000000","MEAN_MOTION_DOT":"0.00000475","PERIOD":"95.593","SEMIMAJOR_AXIS":"6925.372","MEAN_MOTION":"15.06392384","GP_ID":"197409525","PERIAPSIS":"545.885","CENTER_NAME":"EARTH","TIME_SYSTEM":"UTC","ARG_OF_PERICENTER":"51.2258","REF_FRAME":"TEME","TLE_LINE1":"1 44949U 20001AM  22059.57727969  .00000475  00000-0  50802-4 0  9998","BSTAR":"0.00005080200000","MEAN_ELEMENT_THEORY":"SGP4","EPHEMERIS_TYPE":"0","EPOCH":"2022-02-28T13:51:16.965216","RA_OF_ASC_NODE":"86.2142","LAUNCH_DATE":"2020-01-07","INCLINATION":"53.0534","DECAY_DATE":null,"CLASSIFICATION_TYPE":"U","ELEMENT_SET_NO":"999","SITE":"AFETR","MEAN_ANOMALY":"308.8905","ECCENTRICITY":"0.00019520"},{"RCS_SIZE":"LARGE","OBJECT_ID":"2020-001AN","OBJECT_TYPE":"PAYLOAD","REV_AT_EPOCH":"11853","COUNTRY_CODE":"US","APOAPSIS":"548.288","NORAD_CAT_ID":"44950","FILE":"3333642","TLE_LINE2":"2 44950  53.0536  86.4380 0001586  61.2063 298.9085 15.06407732118537","MEAN_MOTION_DOT":"0.00001340","OBJECT_NAME":"STARLINK-1125","MEAN_MOTION_DDOT":"0.0000000000000","SEMIMAJOR_AXIS":"6925.325","PERIOD":"95.592","MEAN_MOTION":"15.06407732","GP_ID":"197358401","PERIAPSIS":"546.092","CENTER_NAME":"EARTH","REF_FRAME":"TEME","ARG_OF_PERICENTER":"61.2063","TIME_SYSTEM":"UTC","BSTAR":"0.00010885000000","TLE_LINE1":"1 44950U 20001AN  22059.52566840  .00001340  00000-0  10885-3 0  9992","MEAN_ELEMENT_THEORY":"SGP4","EPHEMERIS_TYPE":"0","EPOCH":"2022-02-28T12:36:57.749760","RA_OF_ASC_NODE":"86.4380","LAUNCH_DATE":"2020-01-07","INCLINATION":"53.0536","DECAY_DATE":null,"CLASSIFICATION_TYPE":"U","ELEMENT_SET_NO":"999","SITE":"AFETR","MEAN_ANOMALY":"298.9085","ECCENTRICITY":"0.00015860"},{"TLE_LINE1":"1 44951U 20001AP  22059.31681991  .00008906  00000-0  55718-3 0  9994","BSTAR":"0.00055718000000","MEAN_ELEMENT_THEORY":"SGP4","EPHEMERIS_TYPE":"0","PERIOD":"95.357","SEMIMAJOR_AXIS":"6913.965","OBJECT_NAME":"STARLINK-1126","MEAN_MOTION_DDOT":"0.0000000000000","MEAN_MOTION_DOT":"0.00008906","TIME_SYSTEM":"UTC","ARG_OF_PERICENTER":"156.3844","REF_FRAME":"TEME","PERIAPSIS":"535.326","GP_ID":"197358644","CENTER_NAME":"EARTH","MEAN_MOTION":"15.10121709","REV_AT_EPOCH":"11985","OBJECT_TYPE":"PAYLOAD","TLE_LINE2":"2 44951  53.0029  81.1392 0000729 156.3844 203.7179 15.10121709119857","FILE":"3333642","APOAPSIS":"536.335","NORAD_CAT_ID":"44951","COUNTRY_CODE":"US","OBJECT_ID":"2020-001AP","RCS_SIZE":"LARGE","SITE":"AFETR","ECCENTRICITY":"0.00007290","MEAN_ANOMALY":"203.7179","ELEMENT_SET_NO":"999","CLASSIFICATION_TYPE":"U","DECAY_DATE":null,"LAUNCH_DATE":"2020-01-07","RA_OF_ASC_NODE":"81.1392","INCLINATION":"53.0029","EPOCH":"2022-02-28T07:36:13.240224"}];
